     2.100          NAVIGATION                              RINEX VERSION / TYPE
fic2rin                                 08/25/2013 00:17:17 PGM / RUN BY / DATE
                                                            END OF HEADER
20 13  8 24 20  0  0.0  .117835588753D-03  .250111042988D-11  .000000000000D+00
     .530000000000D+02  .639375000000D+02  .530414951055D-08 -.383070441633D+00
     .336579978466D-05  .545124465134D-02  .964850187302D-05  .515369288635D+04
     .590400000000D+06 -.391155481339D-07 -.198107421249D+01  .428408384323D-07
     .927605499658D+00  .174468750000D+03  .128929098872D+01 -.850928301722D-08
     .135362781260D-09  .100000000000D+01  .175400000000D+04  .000000000000D+00
     .240000000000D+01  .000000000000D+00 -.791624188423D-08  .530000000000D+02
     .583206000000D+06  .400000000000D+01
21 13  8 24 20  0  0.0 -.315236859024D-03 -.193267624127D-11  .000000000000D+00
     .660000000000D+02 -.449062500000D+02  .536165190575D-08  .154328611720D+00
    -.217370688915D-05  .205197475152D-01  .998750329018D-05  .515364420319D+04
     .590400000000D+06 -.147148966789D-06 -.297449722309D+01  .225380063057D-06
     .932194521529D+00  .173781250000D+03 -.211086851330D+01 -.876179353530D-08
    -.498949354672D-09  .100000000000D+01  .175400000000D+04  .000000000000D+00
     .240000000000D+01  .000000000000D+00 -.111758708954D-07  .660000000000D+02
     .583206000000D+06  .400000000000D+01
22 13  8 24 20  0  0.0  .181572977453D-03  .193267624127D-11  .000000000000D+00
     .900000000000D+01  .894687500000D+02  .524914721948D-08 -.145251281257D+01
     .450573861599D-05  .681127724238D-02  .100955367088D-04  .515365164566D+04
     .590400000000D+06  .189989805222D-06 -.192528457489D+01  .106170773506D-06
     .924502289071D+00  .166031250000D+03 -.203467040924D+01 -.838999233400D-08
     .131076888450D-09  .100000000000D+01  .175400000000D+04  .000000000000D+00
     .240000000000D+01  .000000000000D+00 -.172294676304D-07  .900000000000D+01
     .583206000000D+06  .400000000000D+01
23 13  8 24 20  0  0.0  .545028597116D-04 -.352429196937D-11  .000000000000D+00
     .570000000000D+02  .182187500000D+02  .493091967831D-08  .264757562542D+01
     .810250639915D-06  .887873582542D-02  .361353158951D-05  .515366517448D+04
     .590400000000D+06 -.137835741043D-06 -.866188939309D+00 -.223517417908D-07
     .954531147665D+00  .307875000000D+03 -.283570459217D+01 -.837820612877D-08
    -.900037490174D-10  .100000000000D+01  .175400000000D+04  .000000000000D+00
     .240000000000D+01  .000000000000D+00 -.200234353542D-07  .570000000000D+02
     .583206000000D+06  .400000000000D+01
24 13  8 24 20  0  0.0 -.124322250485D-04 -.682121026330D-12  .000000000000D+00
     .460000000000D+02 -.619687500000D+02  .440482633584D-08  .193766688321D+01
    -.330433249474D-05  .983893405646D-03  .886060297489D-05  .515366597939D+04
     .590400000000D+06 -.391155481339D-07  .160171458253D+00  .596046447754D-07
     .958855795370D+00  .204406250000D+03  .261489312559D+00 -.808426531353D-08
    -.257153568621D-09  .100000000000D+01  .175400000000D+04  .000000000000D+00
     .240000000000D+01  .000000000000D+00  .325962901115D-08  .460000000000D+02
     .583206000000D+06  .400000000000D+01
25 13  8 24 20  0  0.0  .139390118420D-03  .454747350886D-11  .000000000000D+00
     .490000000000D+02  .381562500000D+02  .420374653149D-08 -.219881938668D+00
     .201910734177D-05  .275754660834D-02  .102128833532D-04  .515373703384D+04
     .590400000000D+06  .409781932831D-07  .121029368454D+01  .614672899246D-07
     .973665716765D+00  .193093750000D+03  .748164875064D+00 -.794068790438D-08
     .511807033103D-09  .100000000000D+01  .175400000000D+04  .000000000000D+00
     .240000000000D+01  .000000000000D+00  .558793544769D-08  .490000000000D+02
     .583206000000D+06  .400000000000D+01
26 13  8 24 20  0  0.0  .157574657351D-03  .176214598469D-10  .000000000000D+00
     .660000000000D+02 -.315625000000D+01  .423874798944D-08  .265076968322D+01
    -.279396772385D-06  .210542390123D-01  .292062759399D-05  .515368611908D+04
     .590400000000D+06  .204890966415D-06 -.783676346854D+00 -.162050127983D-06
     .977800860988D+00  .327781250000D+03  .124940633106D+01 -.782425448303D-08
    -.167149819604D-09  .100000000000D+01  .175400000000D+04  .000000000000D+00
     .240000000000D+01  .000000000000D+00 -.558793544769D-08  .660000000000D+02
     .583206000000D+06  .400000000000D+01
27 13  8 24 20  0  0.0 -.280607491732D-04 -.477484718431D-11  .000000000000D+00
     .480000000000D+02 -.117500000000D+02  .502913805522D-08  .308805799010D+01
    -.685453414917D-06  .390528701246D-03  .462494790554D-05  .515365698051D+04
     .590400000000D+06 -.260770320892D-07  .226033430925D+01 -.409781932831D-07
     .960661223533D+00  .291968750000D+03  .923177012565D+00 -.839320675361D-08
     .104647216119D-09  .100000000000D+01  .175400000000D+04  .000000000000D+00
     .240000000000D+01  .000000000000D+00  .186264514923D-08  .480000000000D+02
     .583206000000D+06  .400000000000D+01
28 13  8 24 20  0  0.0  .286889728159D-03  .318323145621D-11  .000000000000D+00
     .670000000000D+02  .375312500000D+02  .391373445132D-08 -.158769729063D+01
     .230781733990D-05  .186749335844D-01  .875070691109D-05  .515365303802D+04
     .590400000000D+06  .242143869400D-06  .127414274411D+01  .372529029846D-06
     .983956448684D+00  .220562500000D+03 -.176418167231D+01 -.770817821942D-08
     .469662420468D-09  .100000000000D+01  .175400000000D+04  .000000000000D+00
     .240000000000D+01  .000000000000D+00 -.107102096081D-07  .670000000000D+02
     .583206000000D+06  .400000000000D+01
29 13  8 24 20  0  0.0  .464942306280D-03  .318323145621D-11  .000000000000D+00
     .450000000000D+02 -.197812500000D+02  .499449375500D-08  .431429226348D+00
    -.961124897003D-06  .155076524243D-02  .424124300480D-05  .515358650208D+04
     .590400000000D+06 -.316649675369D-07  .231297022756D+01 -.204890966415D-07
     .966758881136D+00  .302656250000D+03 -.976944895916D+00 -.840070706603D-08
     .750031241812D-10  .100000000000D+01  .175400000000D+04  .000000000000D+00
     .240000000000D+01  .000000000000D+00 -.931322574615D-08  .450000000000D+02
     .583206000000D+06  .400000000000D+01
30 13  8 24 20  0  0.0 -.560190528631D-06  .329691829393D-11  .000000000000D+00
     .109000000000D+03 -.209375000000D+01  .444447084434D-08 -.456899303050D+00
     .428408384323D-07  .895829021465D-02  .369735062122D-05  .515367867088D+04
     .590400000000D+06 -.335276126862D-07 -.771649972353D+00  .158324837685D-06
     .975976767453D+00  .318781250000D+03 -.179741844693D+01 -.836356266167D-08
    -.725030200418D-10  .100000000000D+01  .175400000000D+04  .000000000000D+00
     .485000000000D+01  .630000000000D+02 -.372529029846D-08  .109000000000D+03
     .583206000000D+06  .400000000000D+01
31 13  8 24 20  0  0.0  .324248801917D-03  .909494701773D-12  .000000000000D+00
     .220000000000D+02 -.718750000000D+02  .388194741298D-08  .112318955692D+01
    -.366196036339D-05  .788770522922D-02  .938773155212D-05  .515365735626D+04
     .590400000000D+06  .230967998505D-06  .195077918327D+00 -.745058059692D-07
     .980361560108D+00  .206156250000D+03 -.735015368615D+00 -.785354141724D-08
    -.266439669710D-09  .100000000000D+01  .175400000000D+04  .000000000000D+00
     .240000000000D+01  .000000000000D+00 -.130385160446D-07  .220000000000D+02
     .583206000000D+06  .400000000000D+01
32 13  8 24 20  0  0.0 -.553099904209D-03  .216004991671D-11  .000000000000D+00
     .102000000000D+03  .856875000000D+02  .473769734411D-08  .158999858658D+01
     .454299151897D-05  .115887668217D-01  .906735658646D-05  .515361860847D+04
     .590400000000D+06  .745058059692D-07 -.183946443438D+01  .149011611938D-06
     .948621513071D+00  .194250000000D+03 -.313556761378D+00 -.814319633967D-08
     .510735559900D-10  .100000000000D+01  .175400000000D+04  .000000000000D+00
     .340000000000D+01  .000000000000D+00 -.279396772385D-08  .102000000000D+03
     .583206000000D+06  .400000000000D+01
32 13  8 24 19 59 44.0 -.553100369871D-03  .216004991671D-11  .000000000000D+00
     .270000000000D+02  .856875000000D+02  .473769734411D-08  .158766479922D+01
     .454299151897D-05  .115887641441D-01  .906735658646D-05  .515361861420D+04
     .590384000000D+06  .745058059692D-07 -.183946432320D+01  .149011611938D-06
     .948621514534D+00  .194250000000D+03 -.313556869634D+00 -.814319633967D-08
     .510735559900D-10  .100000000000D+01  .175400000000D+04  .000000000000D+00
     .240000000000D+01  .000000000000D+00 -.279396772385D-08  .270000000000D+02
     .586986000000D+06  .400000000000D+01
32 13  8 24 21 59 44.0 -.553084537387D-03  .216004991671D-11  .000000000000D+00
     .280000000000D+02  .928750000000D+02  .469698136241D-08  .263773864095D+01
     .477768480778D-05  .115888034925D-01  .993721187115D-05  .515362118340D+04
     .597584000000D+06 -.117346644402D-06 -.183952356992D+01  .217929482460D-06
     .948622421543D+00  .179375000000D+03 -.313416176413D+00 -.807497921244D-08
     .188936441390D-09  .100000000000D+01  .175400000000D+04  .000000000000D+00
     .240000000000D+01  .000000000000D+00 -.279396772385D-08  .280000000000D+02
     .590406000000D+06  .400000000000D+01
 1 13  8 24 22  0  0.0  .669909641147D-04  .443378667114D-11  .000000000000D+00
     .810000000000D+02 -.491250000000D+02  .461447792581D-08  .272878660992D+01
    -.250712037086D-05  .224566110410D-02  .103227794170D-04  .515369404030D+04
     .597600000000D+06 -.651925802231D-07 -.297036997131D+01 -.391155481339D-07
     .960827229625D+00  .180531250000D+03  .341522185724D+00 -.799461872225D-08
    -.351086052715D-09  .100000000000D+01  .175400000000D+04  .000000000000D+00
     .240000000000D+01  .000000000000D+00  .838190317154D-08  .810000000000D+02
     .590406000000D+06  .400000000000D+01
